[
  {
    "name": "Aruba",
    "name_ru": "Аруба",
    "name_uz": "Aruba",
    "code": "AW",
    "callingCode": "297"
  },
  {
    "name": "Afghanistan",
    "name_ru": "Афганистан",
    "name_uz": "Afg'oniston",
    "code": "AF",
    "callingCode": "93"
  },
  {
    "name": "Angola",
    "name_ru": "Ангола",
    "name_uz": "Angola",
    "code": "AO",
    "callingCode": "244"
  },
  {
    "name": "Anguilla",
    "name_ru": "Ангилья",
    "name_uz": "Anguilla",
    "code": "AI",
    "callingCode": "1264"
  },
  {
    "name": "Ãland Islands",
    "name_ru": "Аландские острова",
    "name_uz": "Aland orollari",
    "code": "AX",
    "callingCode": "358"
  },
  {
    "name": "Albania",
    "name_ru": "Албания",
    "name_uz": "Albaniya",
    "code": "AL",
    "callingCode": "355"
  },
  {
    "name": "Andorra",
    "name_ru": "Андорра",
    "name_uz": "Andorra",
    "code": "AD",
    "callingCode": "376"
  },
  {
    "name": "United Arab Emirates",
    "name_ru": "Объединенные Арабские Эмираты",
    "name_uz": "Birlashgan Arab Amirliklari",
    "code": "AE",
    "callingCode": "971"
  },
  {
    "name": "Argentina",
    "name_ru": "Аргентина",
    "name_uz": "Argentina",
    "code": "AR",
    "callingCode": "54"
  },
  {
    "name": "Armenia",
    "name_ru": "Армения",
    "name_uz": "Armaniston",
    "code": "AM",
    "callingCode": "374"
  },
  {
    "name": "American Samoa",
    "name_ru": "Американское Самоа",
    "name_uz": "Sharqiy Samoa",
    "code": "AS",
    "callingCode": "1684"
  },
  {
    "name": "Antigua and Barbuda",
    "name_ru": "Антигуа и Барбуда",
    "name_uz": "Antigua va Barbuda",
    "code": "AG",
    "callingCode": "1268"
  },
  {
    "name": "Australia",
    "name_ru": "Австралия",
    "name_uz": "Avstraliya",
    "code": "AU",
    "callingCode": "61"
  },
  {
    "name": "Austria",
    "name_ru": "Австрия",
    "name_uz": "Avstriya",
    "code": "AT",
    "callingCode": "43"
  },
  {
    "name": "Azerbaijan",
    "name_ru": "Азербайджан",
    "name_uz": "Ozarbayjon",
    "code": "AZ",
    "callingCode": "994"
  },
  {
    "name": "Burundi",
    "name_ru": "Бурунди",
    "name_uz": "Burundi",
    "code": "BI",
    "callingCode": "257"
  },
  {
    "name": "Belgium",
    "name_ru": "Бельгия",
    "name_uz": "Belgiya",
    "code": "BE",
    "callingCode": "32"
  },
  {
    "name": "Benin",
    "name_ru": "Бенин",
    "name_uz": "Benin",
    "code": "BJ",
    "callingCode": "229"
  },
  {
    "name": "Burkina Faso",
    "name_ru": "Буркина-Фасо",
    "name_uz": "Burkina Faso",
    "code": "BF",
    "callingCode": "226"
  },
  {
    "name": "Bangladesh",
    "name_ru": "Бангладеш",
    "name_uz": "Bangladesh",
    "code": "BD",
    "callingCode": "880"
  },
  {
    "name": "Bulgaria",
    "name_ru": "Болгария",
    "name_uz": "Bolgariya",
    "code": "BG",
    "callingCode": "359"
  },
  {
    "name": "Bahrain",
    "name_ru": "Бахрейн",
    "name_uz": "Bahrayn",
    "code": "BH",
    "callingCode": "973"
  },
  {
    "name": "Bahamas",
    "name_ru": "Багамы",
    "name_uz": "Bagam orollari",
    "code": "BS",
    "callingCode": "1242"
  },
  {
    "name": "Bosnia and Herzegovina",
    "name_ru": "Босния и Герцеговина",
    "name_uz": "Bosniya va Gersegovina",
    "code": "BA",
    "callingCode": "387"
  },
  {
    "name": "Saint Barthélemy",
    "name_ru": "Сен-Бартелеми",
    "name_uz": "Sent Bartelemi",
    "code": "BL",
    "callingCode": "590"
  },
  {
    "name": "Belarus",
    "name_ru": "Республика Беларусь",
    "name_uz": "Belorussiya",
    "code": "BY",
    "callingCode": "375"
  },
  {
    "name": "Belize",
    "name_ru": "Белиз",
    "name_uz": "Beliz",
    "code": "BZ",
    "callingCode": "501"
  },
  {
    "name": "Bermuda",
    "name_ru": "Бермуды",
    "name_uz": "Bermuda",
    "code": "BM",
    "callingCode": "1441"
  },
  {
    "name": "Bolivia",
    "name_ru": "Боливия",
    "name_uz": "Boliviya",
    "code": "BO",
    "callingCode": "591"
  },
  {
    "name": "Brazil",
    "name_ru": "Бразилия",
    "name_uz": "Braziliya",
    "code": "BR",
    "callingCode": "55"
  },
  {
    "name": "Barbados",
    "name_ru": "Барбадос",
    "name_uz": "Barbados",
    "code": "BB",
    "callingCode": "1246"
  },
  {
    "name": "Brunei",
    "name_ru": "Бруней",
    "name_uz": "Bruney",
    "code": "BN",
    "callingCode": "673"
  },
  {
    "name": "Bhutan",
    "name_ru": "Бутан",
    "name_uz": "Butan",
    "code": "BT",
    "callingCode": "975"
  },
  {
    "name": "Botswana",
    "name_ru": "Ботсвана",
    "name_uz": "Botsvana",
    "code": "BW",
    "callingCode": "267"
  },
  {
    "name": "Central African Republic",
    "name_ru": "Центральноафриканская Республика",
    "name_uz": "Markaziy Afrika Respublikasi",
    "code": "CF",
    "callingCode": "236"
  },
  {
    "name": "Canada",
    "name_ru": "Канада",
    "name_uz": "Kanada",
    "code": "CA",
    "callingCode": "1"
  },
  {
    "name": "Cocos (Keeling) Islands",
    "name_ru": "Кокосовые острова",
    "name_uz": "Kokos orollari",
    "code": "CC",
    "callingCode": "61"
  },
  {
    "name": "Switzerland",
    "name_ru": "Швейцария",
    "name_uz": "Shveysariya",
    "code": "CH",
    "callingCode": "41"
  },
  {
    "name": "Chile",
    "name_ru": "Чили",
    "name_uz": "Chili",
    "code": "CL",
    "callingCode": "56"
  },
  {
    "name": "China",
    "name_ru": "Китайская Народная Республика",
    "name_uz": "Xitoy Xalq Respublikasi",
    "code": "CN",
    "callingCode": "86"
  },
  {
    "name": "Ivory Coast",
    "name_ru": "Кот-д’Ивуар",
    "name_uz": "Kot-dʼIvuar",
    "code": "CI",
    "callingCode": "225"
  },
  {
    "name": "Cameroon",
    "name_ru": "Камерун",
    "name_uz": "Kamerun",
    "code": "CM",
    "callingCode": "237"
  },
  {
    "name": "DR Congo",
    "name_ru": "Демократическая Республика Конго",
    "name_uz": "Kongo Demokratik Respublikasi",
    "code": "CD",
    "callingCode": "243"
  },
  {
    "name": "Republic of the Congo",
    "name_ru": "Республика Конго",
    "name_uz": "Kongo Respublikasi",
    "code": "CG",
    "callingCode": "242"
  },
  {
    "name": "Cook Islands",
    "name_ru": "Острова Кука",
    "name_uz": "Kuk orollari",
    "code": "CK",
    "callingCode": "682"
  },
  {
    "name": "Colombia",
    "name_ru": "Колумбия",
    "name_uz": "Kolumbiya",
    "code": "CO",
    "callingCode": "57"
  },
  {
    "name": "Comoros",
    "name_ru": "Коморские Острова",
    "name_uz": "Komoros",
    "code": "KM",
    "callingCode": "269"
  },
  {
    "name": "Cape Verde",
    "name_ru": "Кабо-Верде",
    "name_uz": "Kabo-Verde",
    "code": "CV",
    "callingCode": "238"
  },
  {
    "name": "Costa Rica",
    "name_ru": "Коста-Рика",
    "name_uz": "Kosta-Rika",
    "code": "CR",
    "callingCode": "506"
  },
  {
    "name": "Cuba",
    "name_ru": "Куба",
    "name_uz": "Kuba",
    "code": "CU",
    "callingCode": "53"
  },
  {
    "name": "Curaçao",
    "name_ru": "Кюрасао",
    "name_uz": "Kyurasao",
    "code": "CW",
    "callingCode": "5999"
  },
  {
    "name": "Christmas Island",
    "name_ru": "Остров Рождества",
    "name_uz": "Rojdestvo oroli",
    "code": "CX",
    "callingCode": "61"
  },
  {
    "name": "Cayman Islands",
    "name_ru": "Каймановы острова",
    "name_uz": "Kayman orollari",
    "code": "KY",
    "callingCode": "1345"
  },
  {
    "name": "Cyprus",
    "name_ru": "Республика Кипр",
    "name_uz": "Kipr Respublikasi",
    "code": "CY",
    "callingCode": "357"
  },
  {
    "name": "Czechia",
    "name_ru": "Чехия",
    "name_uz": "Chexiya",
    "code": "CZ",
    "callingCode": "420"
  },
  {
    "name": "Germany",
    "name_ru": "Германия",
    "name_uz": "Germaniya",
    "code": "DE",
    "callingCode": "49"
  },
  {
    "name": "Djibouti",
    "name_ru": "Джибути",
    "name_uz": "Jibuti",
    "code": "DJ",
    "callingCode": "253"
  },
  {
    "name": "Dominica",
    "name_ru": "Доминика",
    "name_uz": "Dominika",
    "code": "DM",
    "callingCode": "1767"
  },
  {
    "name": "Denmark",
    "name_ru": "Дания",
    "name_uz": "Daniya",
    "code": "DK",
    "callingCode": "45"
  },
  {
    "name": "Dominican Republic",
    "name_ru": "Доминиканская Республика",
    "name_uz": "Dominika Respublikasi",
    "code": "DO",
    "callingCode": "1809"
  },
  {
    "name": "Dominican Republic",
    "name_ru": "Доминиканская Республика",
    "name_uz": "Dominika Respublikasi",
    "code": "DO",
    "callingCode": "1829"
  },
  {
    "name": "Dominican Republic",
    "name_ru": "Доминиканская Республика",
    "name_uz": "Dominika Respublikasi",
    "code": "DO",
    "callingCode": "1849"
  },
  {
    "name": "Algeria",
    "name_ru": "Алжир",
    "name_uz": "Jazoir",
    "code": "DZ",
    "callingCode": "213"
  },
  {
    "name": "Ecuador",
    "name_ru": "Эквадор",
    "name_uz": "Ekvador",
    "code": "EC",
    "callingCode": "593"
  },
  {
    "name": "Egypt",
    "name_ru": "Египет",
    "name_uz": "Misr",
    "code": "EG",
    "callingCode": "20"
  },
  {
    "name": "Eritrea",
    "name_ru": "Эритрея",
    "name_uz": "Eritreya",
    "code": "ER",
    "callingCode": "291"
  },
  {
    "name": "Western Sahara",
    "name_ru": "Западная Сахара",
    "name_uz": "G'arbiy Sahroi Kabir",
    "code": "EH",
    "callingCode": "212"
  },
  {
    "name": "Spain",
    "name_ru": "Испания",
    "name_uz": "Ispaniya",
    "code": "ES",
    "callingCode": "34"
  },
  {
    "name": "Estonia",
    "name_ru": "Эстония",
    "name_uz": "Estoniya",
    "code": "EE",
    "callingCode": "372"
  },
  {
    "name": "Ethiopia",
    "name_ru": "Эфиопия",
    "name_uz": "Efiopiya",
    "code": "ET",
    "callingCode": "251"
  },
  {
    "name": "Finland",
    "name_ru": "Финляндия",
    "name_uz": "Finlandiya",
    "code": "FI",
    "callingCode": "358"
  },
  {
    "name": "Fiji",
    "name_ru": "Фиджи",
    "name_uz": "Fiji",
    "code": "FJ",
    "callingCode": "679"
  },
  {
    "name": "Falkland Islands",
    "name_ru": "Фолклендские острова",
    "name_uz": "Folklend orollari",
    "code": "FK",
    "callingCode": "500"
  },
  {
    "name": "France",
    "name_ru": "Франция",
    "name_uz": "Fransiya",
    "code": "FR",
    "callingCode": "33"
  },
  {
    "name": "Faroe Islands",
    "name_ru": "Фарерские острова",
    "name_uz": "Faroe orollari",
    "code": "FO",
    "callingCode": "298"
  },
  {
    "name": "Micronesia",
    "name_ru": "Микронезия",
    "name_uz": "Mikroneziya",
    "code": "FM",
    "callingCode": "691"
  },
  {
    "name": "Gabon",
    "name_ru": "Габон",
    "name_uz": "Gabon",
    "code": "GA",
    "callingCode": "241"
  },
  {
    "name": "United Kingdom",
    "name_ru": "Великобритания",
    "name_uz": "Buyuk Britaniya",
    "code": "GB",
    "callingCode": "44"
  },
  {
    "name": "Georgia",
    "name_ru": "Грузия",
    "name_uz": "Gruziya",
    "code": "GE",
    "callingCode": "995"
  },
  {
    "name": "Guernsey",
    "name_ru": "Гернси",
    "name_uz": "Guernsey",
    "code": "GG",
    "callingCode": "44"
  },
  {
    "name": "Ghana",
    "name_ru": "Гана",
    "name_uz": "Gana",
    "code": "GH",
    "callingCode": "233"
  },
  {
    "name": "Gibraltar",
    "name_ru": "Гибралтар",
    "name_uz": "Gibraltar",
    "code": "GI",
    "callingCode": "350"
  },
  {
    "name": "Guinea",
    "name_ru": "Гвинея",
    "name_uz": "Gvineya",
    "code": "GN",
    "callingCode": "224"
  },
  {
    "name": "Guadeloupe",
    "name_ru": "Гваделупа",
    "name_uz": "Gvadelupa",
    "code": "GP",
    "callingCode": "590"
  },
  {
    "name": "Gambia",
    "name_ru": "Гамбия",
    "name_uz": "Gambia",
    "code": "GM",
    "callingCode": "220"
  },
  {
    "name": "Guinea-Bissau",
    "name_ru": "Гвинея-Бисау",
    "name_uz": "Gvineya-Bisau",
    "code": "GW",
    "callingCode": "245"
  },
  {
    "name": "Equatorial Guinea",
    "name_ru": "Экваториальная Гвинея",
    "name_uz": "Ekvator Gvineyasi",
    "code": "GQ",
    "callingCode": "240"
  },
  {
    "name": "Greece",
    "name_ru": "Греция",
    "name_uz": "Yunoniston",
    "code": "GR",
    "callingCode": "30"
  },
  {
    "name": "Grenada",
    "name_ru": "Гренада",
    "name_uz": "Grenada",
    "code": "GD",
    "callingCode": "1473"
  },
  {
    "name": "Greenland",
    "name_ru": "Гренландия",
    "name_uz": "Grenlandiya",
    "code": "GL",
    "callingCode": "299"
  },
  {
    "name": "Guatemala",
    "name_ru": "Гватемала",
    "name_uz": "Gvatemala",
    "code": "GT",
    "callingCode": "502"
  },
  {
    "name": "French Guiana",
    "name_ru": "Французская Гвиана",
    "name_uz": "Fransiya Gvianasi",
    "code": "GF",
    "callingCode": "594"
  },
  {
    "name": "Guam",
    "name_ru": "Гуам",
    "name_uz": "Guam",
    "code": "GU",
    "callingCode": "1671"
  },
  {
    "name": "Guyana",
    "name_ru": "Гайана",
    "name_uz": "Gayana",
    "code": "GY",
    "callingCode": "592"
  },
  {
    "name": "Hong Kong",
    "name_ru": "Гонконг",
    "name_uz": "Gonkong",
    "code": "HK",
    "callingCode": "852"
  },
  {
    "name": "Honduras",
    "name_ru": "Гондурас",
    "name_uz": "Gonduras",
    "code": "HN",
    "callingCode": "504"
  },
  {
    "name": "Croatia",
    "name_ru": "Хорватия",
    "name_uz": "Xorvatiya",
    "code": "HR",
    "callingCode": "385"
  },
  {
    "name": "Haiti",
    "name_ru": "Гаити",
    "name_uz": "Gaiti",
    "code": "HT",
    "callingCode": "509"
  },
  {
    "name": "Hungary",
    "name_ru": "Венгрия",
    "name_uz": "Mojariston",
    "code": "HU",
    "callingCode": "36"
  },
  {
    "name": "Indonesia",
    "name_ru": "Индонезия",
    "name_uz": "Indoneziya",
    "code": "ID",
    "callingCode": "62"
  },
  {
    "name": "Isle of Man",
    "name_ru": "Остров Мэн",
    "name_uz": "Man oroli",
    "code": "IM",
    "callingCode": "44"
  },
  {
    "name": "India",
    "name_ru": "Индия",
    "name_uz": "Hindiston",
    "code": "IN",
    "callingCode": "91"
  },
  {
    "name": "British Indian Ocean Territory",
    "name_ru": "Британская территория в Индийском океане",
    "name_uz": "Hind okeanidagi Britaniya hududi",
    "code": "IO",
    "callingCode": "246"
  },
  {
    "name": "Ireland",
    "name_ru": "Ирландия",
    "name_uz": "Irlandiya",
    "code": "IE",
    "callingCode": "353"
  },
  {
    "name": "Iran",
    "name_ru": "Иран",
    "name_uz": "Eron",
    "code": "IR",
    "callingCode": "98"
  },
  {
    "name": "Iraq",
    "name_ru": "Ирак",
    "name_uz": "Iroq",
    "code": "IQ",
    "callingCode": "964"
  },
  {
    "name": "Iceland",
    "name_ru": "Исландия",
    "name_uz": "Islandiya",
    "code": "IS",
    "callingCode": "354"
  },
  {
    "name": "Israel",
    "name_ru": "Израиль",
    "name_uz": "Isroil",
    "code": "IL",
    "callingCode": "972"
  },
  {
    "name": "Italy",
    "name_ru": "Италия",
    "name_uz": "Italiya",
    "code": "IT",
    "callingCode": "39"
  },
  {
    "name": "Jamaica",
    "name_ru": "Ямайка",
    "name_uz": "Yamayka",
    "code": "JM",
    "callingCode": "1876"
  },
  {
    "name": "Jersey",
    "name_ru": "Джерси",
    "name_uz": "Jersi",
    "code": "JE",
    "callingCode": "44"
  },
  {
    "name": "Jordan",
    "name_ru": "Иордания",
    "name_uz": "Iordaniya",
    "code": "JO",
    "callingCode": "962"
  },
  {
    "name": "Japan",
    "name_ru": "Япония",
    "name_uz": "Yaponiya",
    "code": "JP",
    "callingCode": "81"
  },
  {
    "name": "Kazakhstan",
    "name_ru": "Казахстан",
    "name_uz": "Qozog'iston",
    "code": "KZ",
    "callingCode": "76"
  },
  {
    "name": "Kazakhstan",
    "name_ru": "Казахстан",
    "name_uz": "Qozog'iston",
    "code": "KZ",
    "callingCode": "77"
  },
  {
    "name": "Kenya",
    "name_ru": "Кения",
    "name_uz": "Keniya",
    "code": "KE",
    "callingCode": "254"
  },
  {
    "name": "Kyrgyzstan",
    "name_ru": "Киргизия",
    "name_uz": "Qirg'iziston",
    "code": "KG",
    "callingCode": "996"
  },
  {
    "name": "Cambodia",
    "name_ru": "Камбоджа",
    "name_uz": "Kambodja",
    "code": "KH",
    "callingCode": "855"
  },
  {
    "name": "Kiribati",
    "name_ru": "Кирибати",
    "name_uz": "Kiribati",
    "code": "KI",
    "callingCode": "686"
  },
  {
    "name": "Saint Kitts and Nevis",
    "name_ru": "Сент-Китс и Невис",
    "name_uz": "Sent Kitts va Nevis",
    "code": "KN",
    "callingCode": "1869"
  },
  {
    "name": "South Korea",
    "name_ru": "Южная Корея",
    "name_uz": "Koreya Respublikasi",
    "code": "KR",
    "callingCode": "82"
  },
  {
    "name": "Kosovo",
    "name_ru": "Косово",
    "name_uz": "Kosovo",
    "code": "XK",
    "callingCode": "383"
  },
  {
    "name": "Kuwait",
    "name_ru": "Кувейт",
    "name_uz": "Quvayt",
    "code": "KW",
    "callingCode": "965"
  },
  {
    "name": "Laos",
    "name_ru": "Лаос",
    "name_uz": "Laos",
    "code": "LA",
    "callingCode": "856"
  },
  {
    "name": "Lebanon",
    "name_ru": "Ливан",
    "name_uz": "Livan",
    "code": "LB",
    "callingCode": "961"
  },
  {
    "name": "Liberia",
    "name_ru": "Либерия",
    "name_uz": "Liberiya",
    "code": "LR",
    "callingCode": "231"
  },
  {
    "name": "Libya",
    "name_ru": "Ливия",
    "name_uz": "Liviya",
    "code": "LY",
    "callingCode": "218"
  },
  {
    "name": "Saint Lucia",
    "name_ru": "Сент-Люсия",
    "name_uz": "Sent Lyusiya",
    "code": "LC",
    "callingCode": "1758"
  },
  {
    "name": "Liechtenstein",
    "name_ru": "Лихтенштейн",
    "name_uz": "Lixtenshteyn",
    "code": "LI",
    "callingCode": "423"
  },
  {
    "name": "Sri Lanka",
    "name_ru": "Шри-Ланка",
    "name_uz": "Shri lanka",
    "code": "LK",
    "callingCode": "94"
  },
  {
    "name": "Lesotho",
    "name_ru": "Лесото",
    "name_uz": "Lesoto",
    "code": "LS",
    "callingCode": "266"
  },
  {
    "name": "Lithuania",
    "name_ru": "Литва",
    "name_uz": "Litva",
    "code": "LT",
    "callingCode": "370"
  },
  {
    "name": "Luxembourg",
    "name_ru": "Люксембург",
    "name_uz": "Lyuksemburg",
    "code": "LU",
    "callingCode": "352"
  },
  {
    "name": "Latvia",
    "name_ru": "Латвия",
    "name_uz": "Latviya",
    "code": "LV",
    "callingCode": "371"
  },
  {
    "name": "Macau",
    "name_ru": "Макао",
    "name_uz": "Makao",
    "code": "MO",
    "callingCode": "853"
  },
  {
    "name": "Saint Martin",
    "name_ru": "Сен-Мартен",
    "name_uz": "Sen-Marten",
    "code": "MF",
    "callingCode": "590"
  },
  {
    "name": "Morocco",
    "name_ru": "Марокко",
    "name_uz": "Marokash",
    "code": "MA",
    "callingCode": "212"
  },
  {
    "name": "Monaco",
    "name_ru": "Монако",
    "name_uz": "Monako",
    "code": "MC",
    "callingCode": "377"
  },
  {
    "name": "Moldova",
    "name_ru": "Республика Молдова",
    "name_uz": "Moldaviya",
    "code": "MD",
    "callingCode": "373"
  },
  {
    "name": "Madagascar",
    "name_ru": "Мадагаскар",
    "name_uz": "Madagaskar",
    "code": "MG",
    "callingCode": "261"
  },
  {
    "name": "Maldives",
    "name_ru": "Мальдивские острова",
    "name_uz": "Maldiv Respublikasi",
    "code": "MV",
    "callingCode": "960"
  },
  {
    "name": "Mexico",
    "name_ru": "Мексика",
    "name_uz": "Meksika",
    "code": "MX",
    "callingCode": "52"
  },
  {
    "name": "Marshall Islands",
    "name_ru": "Маршалловы острова",
    "name_uz": "Marshall Orollari",
    "code": "MH",
    "callingCode": "692"
  },
  {
    "name": "Macedonia",
    "name_ru": "Республика Македония",
    "name_uz": "Makedoniya",
    "code": "MK",
    "callingCode": "389"
  },
  {
    "name": "Mali",
    "name_ru": "Мали",
    "name_uz": "Mali",
    "code": "ML",
    "callingCode": "223"
  },
  {
    "name": "Malta",
    "name_ru": "Мальта",
    "name_uz": "Malta",
    "code": "MT",
    "callingCode": "356"
  },
  {
    "name": "Myanmar",
    "name_ru": "Мьянма",
    "name_uz": "Myanma",
    "code": "MM",
    "callingCode": "95"
  },
  {
    "name": "Montenegro",
    "name_ru": "Черногория",
    "name_uz": "Qoratog' Respublikasi",
    "code": "ME",
    "callingCode": "382"
  },
  {
    "name": "Mongolia",
    "name_ru": "Монголия",
    "name_uz": "Mongoliya",
    "code": "MN",
    "callingCode": "976"
  },
  {
    "name": "Northern Mariana Islands",
    "name_ru": "Северные Марианские Острова",
    "name_uz": "Shimoliy Mariana orollari",
    "code": "MP",
    "callingCode": "1670"
  },
  {
    "name": "Mozambique",
    "name_ru": "Мозамбик",
    "name_uz": "Mozambik",
    "code": "MZ",
    "callingCode": "258"
  },
  {
    "name": "Mauritania",
    "name_ru": "Мавритания",
    "name_uz": "Mavritaniya",
    "code": "MR",
    "callingCode": "222"
  },
  {
    "name": "Montserrat",
    "name_ru": "Монтсеррат",
    "name_uz": "Montserrat",
    "code": "MS",
    "callingCode": "1664"
  },
  {
    "name": "Martinique",
    "name_ru": "Мартиника",
    "name_uz": "Martinika",
    "code": "MQ",
    "callingCode": "596"
  },
  {
    "name": "Mauritius",
    "name_ru": "Маврикий",
    "name_uz": "Mavrikiya",
    "code": "MU",
    "callingCode": "230"
  },
  {
    "name": "Malawi",
    "name_ru": "Малави",
    "name_uz": "Malavi",
    "code": "MW",
    "callingCode": "265"
  },
  {
    "name": "Malaysia",
    "name_ru": "Малайзия",
    "name_uz": "Malayziya",
    "code": "MY",
    "callingCode": "60"
  },
  {
    "name": "Mayotte",
    "name_ru": "Майотта",
    "name_uz": "Mayotta",
    "code": "YT",
    "callingCode": "262"
  },
  {
    "name": "Namibia",
    "name_ru": "Намибия",
    "name_uz": "Namibiya",
    "code": "NA",
    "callingCode": "264"
  },
  {
    "name": "New Caledonia",
    "name_ru": "Новая Каледония",
    "name_uz": "Yangi kaledoniya",
    "code": "NC",
    "callingCode": "687"
  },
  {
    "name": "Niger",
    "name_ru": "Нигер",
    "name_uz": "Niger",
    "code": "NE",
    "callingCode": "227"
  },
  {
    "name": "Norfolk Island",
    "name_ru": "Остров Норфолк",
    "name_uz": "Norfolk Oroli",
    "code": "NF",
    "callingCode": "672"
  },
  {
    "name": "Nigeria",
    "name_ru": "Нигерия",
    "name_uz": "Nigeriya",
    "code": "NG",
    "callingCode": "234"
  },
  {
    "name": "Nicaragua",
    "name_ru": "Никарагуа",
    "name_uz": "Nikaragua",
    "code": "NI",
    "callingCode": "505"
  },
  {
    "name": "Niue",
    "name_ru": "Ниуэ",
    "name_uz": "Niue",
    "code": "NU",
    "callingCode": "683"
  },
  {
    "name": "Netherlands",
    "name_ru": "Нидерланды",
    "name_uz": "Niderlandiya",
    "code": "NL",
    "callingCode": "31"
  },
  {
    "name": "Norway",
    "name_ru": "Норвегия",
    "name_uz": "Norvegiya",
    "code": "NO",
    "callingCode": "47"
  },
  {
    "name": "Nepal",
    "name_ru": "Непал",
    "name_uz": "Nepal",
    "code": "NP",
    "callingCode": "977"
  },
  {
    "name": "Nauru",
    "name_ru": "Науру",
    "name_uz": "Nauru",
    "code": "NR",
    "callingCode": "674"
  },
  {
    "name": "New Zealand",
    "name_ru": "Новая Зеландия",
    "name_uz": "Yangi Zelandiya",
    "code": "NZ",
    "callingCode": "64"
  },
  {
    "name": "Oman",
    "name_ru": "Оман",
    "name_uz": "Ummon",
    "code": "OM",
    "callingCode": "968"
  },
  {
    "name": "Pakistan",
    "name_ru": "Пакистан",
    "name_uz": "Pokiston",
    "code": "PK",
    "callingCode": "92"
  },
  {
    "name": "Panama",
    "name_ru": "Панама",
    "name_uz": "Panama",
    "code": "PA",
    "callingCode": "507"
  },
  {
    "name": "Pitcairn Islands",
    "name_ru": "Острова Питкэрн",
    "name_uz": "Pitkern orollari",
    "code": "PN",
    "callingCode": "64"
  },
  {
    "name": "Peru",
    "name_ru": "Перу",
    "name_uz": "Peru",
    "code": "PE",
    "callingCode": "51"
  },
  {
    "name": "Philippines",
    "name_ru": "Филиппины",
    "name_uz": "Filippin",
    "code": "PH",
    "callingCode": "63"
  },
  {
    "name": "Palau",
    "name_ru": "Палау",
    "name_uz": "Palau",
    "code": "PW",
    "callingCode": "680"
  },
  {
    "name": "Papua New Guinea",
    "name_ru": "Папуа — Новая Гвинея",
    "name_uz": "Papua Yangi Gvineya",
    "code": "PG",
    "callingCode": "675"
  },
  {
    "name": "Poland",
    "name_ru": "Польша",
    "name_uz": "Polsha",
    "code": "PL",
    "callingCode": "48"
  },
  {
    "name": "Puerto Rico",
    "name_ru": "Пуэрто-Рико",
    "name_uz": "Puerto-Riko",
    "code": "PR",
    "callingCode": "1787"
  },
  {
    "name": "Puerto Rico",
    "name_ru": "Пуэрто-Рико",
    "name_uz": "Puerto-Riko",
    "code": "PR",
    "callingCode": "1939"
  },
  {
    "name": "North Korea",
    "name_ru": "КНДР",
    "name_uz": "Shimoliy Koreya",
    "code": "KP",
    "callingCode": "850"
  },
  {
    "name": "Portugal",
    "name_ru": "Португалия",
    "name_uz": "Portugaliya",
    "code": "PT",
    "callingCode": "351"
  },
  {
    "name": "Paraguay",
    "name_ru": "Парагвай",
    "name_uz": "Paragvay",
    "code": "PY",
    "callingCode": "595"
  },
  {
    "name": "Palestine",
    "name_ru": "Палестина",
    "name_uz": "Falastin",
    "code": "PS",
    "callingCode": "970"
  },
  {
    "name": "French Polynesia",
    "name_ru": "Французская Полинезия",
    "name_uz": "Fransuz Polineziyasi",
    "code": "PF",
    "callingCode": "689"
  },
  {
    "name": "Qatar",
    "name_ru": "Катар",
    "name_uz": "Qatar",
    "code": "QA",
    "callingCode": "974"
  },
  {
    "name": "Reunion",
    "name_ru": "Реюньон",
    "name_uz": "Reyunion",
    "code": "RE",
    "callingCode": "262"
  },
  {
    "name": "Romania",
    "name_ru": "Румыния",
    "name_uz": "Ruminiya",
    "code": "RO",
    "callingCode": "40"
  },
  {
    "name": "Russia",
    "name_ru": "Россия",
    "name_uz": "Rossiya",
    "code": "RU",
    "callingCode": "7"
  },
  {
    "name": "Rwanda",
    "name_ru": "Руанда",
    "name_uz": "Ruanda",
    "code": "RW",
    "callingCode": "250"
  },
  {
    "name": "Saudi Arabia",
    "name_ru": "Саудовская Аравия",
    "name_uz": "Saudiya Arabistoni",
    "code": "SA",
    "callingCode": "966"
  },
  {
    "name": "Sudan",
    "name_ru": "Судан",
    "name_uz": "Sudan",
    "code": "SD",
    "callingCode": "249"
  },
  {
    "name": "Senegal",
    "name_ru": "Сенегал",
    "name_uz": "Senegal",
    "code": "SN",
    "callingCode": "221"
  },
  {
    "name": "Singapore",
    "name_ru": "Сингапур",
    "name_uz": "Singapur",
    "code": "SG",
    "callingCode": "65"
  },
  {
    "name": "South Georgia",
    "name_ru": "Южная Георгия",
    "name_uz": "Janubiy Georgiya",
    "code": "GS",
    "callingCode": "500"
  },
  {
    "name": "Svalbard and Jan Mayen",
    "name_ru": "Шпицберген и Ян-Майен",
    "name_uz": "Shpitsbergen va Yan Mayen",
    "code": "SJ",
    "callingCode": "4779"
  },
  {
    "name": "Solomon Islands",
    "name_ru": "Соломоновы Острова",
    "name_uz": "Solomon Orollari",
    "code": "SB",
    "callingCode": "677"
  },
  {
    "name": "Sierra Leone",
    "name_ru": "Сьерра-Леоне",
    "name_uz": "Syerra-Leone",
    "code": "SL",
    "callingCode": "232"
  },
  {
    "name": "El Salvador",
    "name_ru": "Сальвадор",
    "name_uz": "Salvador",
    "code": "SV",
    "callingCode": "503"
  },
  {
    "name": "San Marino",
    "name_ru": "Сан-Марино",
    "name_uz": "San Marino",
    "code": "SM",
    "callingCode": "378"
  },
  {
    "name": "Somalia",
    "name_ru": "Сомали",
    "name_uz": "Somali",
    "code": "SO",
    "callingCode": "252"
  },
  {
    "name": "Saint Pierre and Miquelon",
    "name_ru": "Сен-Пьер и Микелон",
    "name_uz": "Sen-Pyer va Mikelon",
    "code": "PM",
    "callingCode": "508"
  },
  {
    "name": "Serbia",
    "name_ru": "Сербия",
    "name_uz": "Serbiya",
    "code": "RS",
    "callingCode": "381"
  },
  {
    "name": "South Sudan",
    "name_ru": "Южный Судан",
    "name_uz": "Janubiy Sudan",
    "code": "SS",
    "callingCode": "211"
  },
  {
    "name": "Sao Tome and Principe",
    "name_ru": "Сан-Томе и Принсипи",
    "name_uz": "San Tome va Prinsipi",
    "code": "ST",
    "callingCode": "239"
  },
  {
    "name": "Suriname",
    "name_ru": "Суринам",
    "name_uz": "Surinam",
    "code": "SR",
    "callingCode": "597"
  },
  {
    "name": "Slovakia",
    "name_ru": "Словакия",
    "name_uz": "Slovakiya",
    "code": "SK",
    "callingCode": "421"
  },
  {
    "name": "Slovenia",
    "name_ru": "Словения",
    "name_uz": "Sloveniya",
    "code": "SI",
    "callingCode": "386"
  },
  {
    "name": "Sweden",
    "name_ru": "Швеция",
    "name_uz": "Shvetsiya",
    "code": "SE",
    "callingCode": "46"
  },
  {
    "name": "Swaziland",
    "name_ru": "Свазиленд",
    "name_uz": "Svazilend",
    "code": "SZ",
    "callingCode": "268"
  },
  {
    "name": "Sint Maarten",
    "name_ru": "Синт-Мартен",
    "name_uz": "Sint Marten",
    "code": "SX",
    "callingCode": "1721"
  },
  {
    "name": "Seychelles",
    "name_ru": "Сейшелы",
    "name_uz": "Seyshell orollari",
    "code": "SC",
    "callingCode": "248"
  },
  {
    "name": "Syria",
    "name_ru": "Сирия",
    "name_uz": "Suriya",
    "code": "SY",
    "callingCode": "963"
  },
  {
    "name": "Turks and Caicos Islands",
    "name_ru": "Острова Теркс и Кайкос",
    "name_uz": "Terks va Kaykos orollari",
    "code": "TC",
    "callingCode": "1649"
  },
  {
    "name": "Chad",
    "name_ru": "Чад",
    "name_uz": "Chad",
    "code": "TD",
    "callingCode": "235"
  },
  {
    "name": "Togo",
    "name_ru": "Того",
    "name_uz": "Togo",
    "code": "TG",
    "callingCode": "228"
  },
  {
    "name": "Thailand",
    "name_ru": "Таиланд",
    "name_uz": "Tailand",
    "code": "TH",
    "callingCode": "66"
  },
  {
    "name": "Tajikistan",
    "name_ru": "Таджикистан",
    "name_uz": "Tojikiston",
    "code": "TJ",
    "callingCode": "992"
  },
  {
    "name": "Tokelau",
    "name_ru": "Токелау",
    "name_uz": "Tokelau",
    "code": "TK",
    "callingCode": "690"
  },
  {
    "name": "Turkmenistan",
    "name_ru": "Туркменистан",
    "name_uz": "Turkmaniston",
    "code": "TM",
    "callingCode": "993"
  },
  {
    "name": "East Timor",
    "name_ru": "Восточный Тимор",
    "name_uz": "Sharqiy Timor",
    "code": "TL",
    "callingCode": "670"
  },
  {
    "name": "Tonga",
    "name_ru": "Тонга",
    "name_uz": "Tonga",
    "code": "TO",
    "callingCode": "676"
  },
  {
    "name": "Trinidad and Tobago",
    "name_ru": "Тринидад и Тобаго",
    "name_uz": "Trinidad va Tobago",
    "code": "TT",
    "callingCode": "1868"
  },
  {
    "name": "Tunisia",
    "name_ru": "Тунис",
    "name_uz": "Tunis",
    "code": "TN",
    "callingCode": "216"
  },
  {
    "name": "Turkey",
    "name_ru": "Турция",
    "name_uz": "Turkiya",
    "code": "TR",
    "callingCode": "90"
  },
  {
    "name": "Tuvalu",
    "name_ru": "Тувалу",
    "name_uz": "Tuvalu",
    "code": "TV",
    "callingCode": "688"
  },
  {
    "name": "Taiwan",
    "name_ru": "Тайвань",
    "name_uz": "Tayvan",
    "code": "TW",
    "callingCode": "886"
  },
  {
    "name": "Tanzania",
    "name_ru": "Танзания",
    "name_uz": "Tanzaniya",
    "code": "TZ",
    "callingCode": "255"
  },
  {
    "name": "Uganda",
    "name_ru": "Уганда",
    "name_uz": "Uganda",
    "code": "UG",
    "callingCode": "256"
  },
  {
    "name": "Ukraine",
    "name_ru": "Украина",
    "name_uz": "Ukraina",
    "code": "UA",
    "callingCode": "380"
  },
  {
    "name": "Uruguay",
    "name_ru": "Уругвай",
    "name_uz": "Urugvay",
    "code": "UY",
    "callingCode": "598"
  },
  {
    "name": "United States",
    "name_ru": "США",
    "name_uz": "AQSH",
    "code": "US",
    "callingCode": "1"
  },
  {
    "name": "Uzbekistan",
    "name_ru": "Узбекистан",
    "name_uz": "O'zbekiston",
    "code": "UZ",
    "callingCode": "998"
  },
  {
    "name": "Vatican City",
    "name_ru": "Ватикан",
    "name_uz": "Vatikan",
    "code": "VA",
    "callingCode": "3906698"
  },
  {
    "name": "Vatican City",
    "name_ru": "Ватикан",
    "name_uz": "Vatikan",
    "code": "VA",
    "callingCode": "379"
  },
  {
    "name": "Saint Vincent and the Grenadines",
    "name_ru": "Сент-Винсент и Гренадины",
    "name_uz": "Sent Vinsent va Grenadinlar",
    "code": "VC",
    "callingCode": "1784"
  },
  {
    "name": "Venezuela",
    "name_ru": "Венесуэла",
    "name_uz": "Venesuela",
    "code": "VE",
    "callingCode": "58"
  },
  {
    "name": "British Virgin Islands",
    "name_ru": "Британские Виргинские острова",
    "name_uz": "Britaniya Virgin orollari",
    "code": "VG",
    "callingCode": "1284"
  },
  {
    "name": "United States Virgin Islands",
    "name_ru": "Американские Виргинские острова",
    "name_uz": "Amerika Virgin Orollari",
    "code": "VI",
    "callingCode": "1340"
  },
  {
    "name": "Vietnam",
    "name_ru": "Вьетнам",
    "name_uz": "Vietnam",
    "code": "VN",
    "callingCode": "84"
  },
  {
    "name": "Vanuatu",
    "name_ru": "Вануату",
    "name_uz": "Vanuatu",
    "code": "VU",
    "callingCode": "678"
  },
  {
    "name": "Wallis and Futuna",
    "name_ru": "Уоллис и Футуна",
    "name_uz": "Uollis va Futuna",
    "code": "WF",
    "callingCode": "681"
  },
  {
    "name": "Samoa",
    "name_ru": "Западное Самоа",
    "name_uz": "Samoa",
    "code": "WS",
    "callingCode": "685"
  },
  {
    "name": "Yemen",
    "name_ru": "Йемен",
    "name_uz": "Yaman",
    "code": "YE",
    "callingCode": "967"
  },
  {
    "name": "South Africa",
    "name_ru": "Южная Африка",
    "name_uz": "Janubiy Afrika",
    "code": "ZA",
    "callingCode": "27"
  },
  {
    "name": "Zambia",
    "name_ru": "Замбия",
    "name_uz": "Zambiya",
    "code": "ZM",
    "callingCode": "260"
  },
  {
    "name": "Zimbabwe",
    "name_ru": "Зимбабве",
    "name_uz": "Zimbabve",
    "code": "ZW",
    "callingCode": "263"
  }
]
